start=new Date('2022-09-28T00:00:00.000Z').valueOf();
sats=[{"TLE_LINE1":"1 52133U 22029AX  22270.37775513 -.00000187  00000-0  63333-5 0  9990","TLE_LINE2":"2 52133  53.2190 322.3831 0001685  41.8040 318.3080 15.08827884 30822","PERIAPSIS":"538.617","MEAN_MOTION_DDOT":"0.0000000000000","ECCENTRICITY":"0.00016850","RA_OF_ASC_NODE":"322.3831","NORAD_CAT_ID":"52133","EPOCH":"2022-09-27T09:03:58.043232","GP_ID":"213637450","SITE":"AFETR","COUNTRY_CODE":"US","MEAN_MOTION":"15.08827884","MEAN_ANOMALY":"318.3080","CENTER_NAME":"EARTH","REF_FRAME":"TEME","ELEMENT_SET_NO":"999","PERIOD":"95.438","MEAN_MOTION_DOT":"-0.00000187","BSTAR":"0.00000633330000","MEAN_ELEMENT_THEORY":"SGP4","DECAY_DATE":null,"OBJECT_NAME":"STARLINK-3707","ARG_OF_PERICENTER":"41.8040","TIME_SYSTEM":"UTC","OBJECT_TYPE":"PAYLOAD","OBJECT_ID":"2022-029AX","EPHEMERIS_TYPE":"0","CLASSIFICATION_TYPE":"U","LAUNCH_DATE":"2022-03-19","FILE":"3585092","INCLINATION":"53.2190","RCS_SIZE":"LARGE","REV_AT_EPOCH":"3082","APOAPSIS":"540.948","SEMIMAJOR_AXIS":"6917.917"},{"PERIOD":"95.438","MEAN_MOTION_DOT":"-0.00001951","BSTAR":"-0.00010451000000","ELEMENT_SET_NO":"999","MEAN_ANOMALY":"304.7605","CENTER_NAME":"EARTH","REF_FRAME":"TEME","MEAN_MOTION":"15.08834202","COUNTRY_CODE":"US","GP_ID":"213610136","EPOCH":"2022-09-27T10:44:39.392160","SITE":"AFETR","NORAD_CAT_ID":"52134","RA_OF_ASC_NODE":"322.0708","ECCENTRICITY":"0.00018240","PERIAPSIS":"538.501","MEAN_MOTION_DDOT":"0.0000000000000","TLE_LINE2":"2 52134  53.2192 322.0708 0001824  55.3559 304.7605 15.08834202 30830","TLE_LINE1":"1 52134U 22029AY  22270.44767815 -.00001951  00000-0 -10451-3 0  9997","REV_AT_EPOCH":"3083","APOAPSIS":"541.025","SEMIMAJOR_AXIS":"6917.898","INCLINATION":"53.2192","RCS_SIZE":"LARGE","FILE":"3584922","LAUNCH_DATE":"2022-03-19","CLASSIFICATION_TYPE":"U","EPHEMERIS_TYPE":"0","OBJECT_ID":"2022-029AY","ARG_OF_PERICENTER":"55.3559","OBJECT_TYPE":"PAYLOAD","TIME_SYSTEM":"UTC","OBJECT_NAME":"STARLINK-3721","DECAY_DATE":null,"MEAN_ELEMENT_THEORY":"SGP4"},{"REF_FRAME":"TEME","CENTER_NAME":"EARTH","MEAN_ANOMALY":"316.2802","ELEMENT_SET_NO":"999","BSTAR":"0.00007884900000","MEAN_MOTION_DOT":"0.00000967","PERIOD":"95.437","COUNTRY_CODE":"US","MEAN_MOTION":"15.08848095","NORAD_CAT_ID":"52135","SITE":"AFETR","EPOCH":"2022-09-27T19:55:45.475680","GP_ID":"213667598","TLE_LINE1":"1 52135U 22029AZ  22270.83038745  .00000967  00000-0  78849-4 0  9994","TLE_LINE2":"2 52135  53.2198 320.3544 0001884  43.8340 316.2802 15.08848095 30890","MEAN_MOTION_DDOT":"0.0000000000000","PERIAPSIS":"538.417","ECCENTRICITY":"0.00018840","RA_OF_ASC_NODE":"320.3544","FILE":"3585280","INCLINATION":"53.2198","RCS_SIZE":"LARGE","APOAPSIS":"541.024","SEMIMAJOR_AXIS":"6917.856","REV_AT_EPOCH":"3089","CLASSIFICATION_TYPE":"U","LAUNCH_DATE":"2022-03-19","OBJECT_NAME":"STARLINK-3729","OBJECT_TYPE":"PAYLOAD","TIME_SYSTEM":"UTC","ARG_OF_PERICENTER":"43.8340","EPHEMERIS_TYPE":"0","OBJECT_ID":"2022-029AZ","MEAN_ELEMENT_THEORY":"SGP4","DECAY_DATE":null},{"LAUNCH_DATE":"2022-03-19","CLASSIFICATION_TYPE":"U","RCS_SIZE":"LARGE","INCLINATION":"53.2196","SEMIMAJOR_AXIS":"6917.863","APOAPSIS":"540.848","REV_AT_EPOCH":"3089","FILE":"3585280","MEAN_ELEMENT_THEORY":"SGP4","DECAY_DATE":null,"OBJECT_ID":"2022-029BA","EPHEMERIS_TYPE":"0","OBJECT_NAME":"STARLINK-3720","OBJECT_TYPE":"PAYLOAD","TIME_SYSTEM":"UTC","ARG_OF_PERICENTER":"52.5804","MEAN_MOTION":"15.08845827","COUNTRY_CODE":"US","MEAN_MOTION_DOT":"0.00000902","BSTAR":"0.00007473700000","PERIOD":"95.437","REF_FRAME":"TEME","CENTER_NAME":"EARTH","MEAN_ANOMALY":"307.5336","ELEMENT_SET_NO":"999","MEAN_MOTION_DDOT":"0.0000000000000","PERIAPSIS":"538.607","ECCENTRICITY":"0.00016200","RA_OF_ASC_NODE":"320.3187","TLE_LINE1":"1 52136U 22029BA  22270.83774752  .00000902  00000-0  74737-4 0  9991","TLE_LINE2":"2 52136  53.2196 320.3187 0001620  52.5804 307.5336 15.08845827 30897","SITE":"AFETR","GP_ID":"213667850","EPOCH":"2022-09-27T20:06:21.385728","NORAD_CAT_ID":"52136"},{"TLE_LINE1":"1 52137U 22029BB  22270.62799549  .00000080  00000-0  23114-4 0  9990","TLE_LINE2":"2 52137  53.2205 321.2622 0001878  48.0618 312.0534 15.08830813 30868","MEAN_MOTION_DDOT":"0.0000000000000","PERIAPSIS":"538.474","ECCENTRICITY":"0.00018780","RA_OF_ASC_NODE":"321.2622","NORAD_CAT_ID":"52137","GP_ID":"213668094","EPOCH":"2022-09-27T15:04:18.810336","SITE":"AFETR","COUNTRY_CODE":"US","MEAN_MOTION":"15.08830813","MEAN_ANOMALY":"312.0534","CENTER_NAME":"EARTH","REF_FRAME":"TEME","ELEMENT_SET_NO":"999","PERIOD":"95.438","BSTAR":"0.00002311400000","MEAN_MOTION_DOT":"0.00000080","MEAN_ELEMENT_THEORY":"SGP4","DECAY_DATE":null,"OBJECT_NAME":"STARLINK-3733","ARG_OF_PERICENTER":"48.0618","OBJECT_TYPE":"PAYLOAD","TIME_SYSTEM":"UTC","EPHEMERIS_TYPE":"0","OBJECT_ID":"2022-029BB","CLASSIFICATION_TYPE":"U","LAUNCH_DATE":"2022-03-19","FILE":"3585280","RCS_SIZE":"LARGE","INCLINATION":"53.2205","REV_AT_EPOCH":"3086","APOAPSIS":"541.073","SEMIMAJOR_AXIS":"6917.908"},{"OBJECT_ID":"2022-029BC","EPHEMERIS_TYPE":"0","OBJECT_NAME":"STARLINK-3723","ARG_OF_PERICENTER":"51.6582","TIME_SYSTEM":"UTC","OBJECT_TYPE":"PAYLOAD","MEAN_ELEMENT_THEORY":"SGP4","DECAY_DATE":null,"INCLINATION":"53.2202","RCS_SIZE":"LARGE","REV_AT_EPOCH":"3086","SEMIMAJOR_AXIS":"6917.895","APOAPSIS":"540.808","FILE":"3585280","LAUNCH_DATE":"2022-03-19","CLASSIFICATION_TYPE":"U","EPOCH":"2022-09-27T15:14:55.116096","GP_ID":"213667348","SITE":"AFETR","NORAD_CAT_ID":"52138","PERIAPSIS":"538.712","MEAN_MOTION_DDOT":"0.0000000000000","ECCENTRICITY":"0.00015150","RA_OF_ASC_NODE":"321.2291","TLE_LINE1":"1 52138U 22029BC  22270.63536014 -.00001914  00000-0 -10223-3 0  9993","TLE_LINE2":"2 52138  53.2202 321.2291 0001515  51.6582 308.4546 15.08835300 30864","PERIOD":"95.438","MEAN_MOTION_DOT":"-0.00001914","BSTAR":"-0.00010223000000","MEAN_ANOMALY":"308.4546","CENTER_NAME":"EARTH","REF_FRAME":"TEME","ELEMENT_SET_NO":"999","MEAN_MOTION":"15.08835300","COUNTRY_CODE":"US"},{"APOAPSIS":"541.207","SEMIMAJOR_AXIS":"6917.867","REV_AT_EPOCH":"3075","RCS_SIZE":"LARGE","INCLINATION":"53.2189","FILE":"3585280","LAUNCH_DATE":"2022-03-19","CLASSIFICATION_TYPE":"U","EPHEMERIS_TYPE":"0","OBJECT_ID":"2022-029BD","OBJECT_TYPE":"PAYLOAD","TIME_SYSTEM":"UTC","ARG_OF_PERICENTER":"43.3198","OBJECT_NAME":"STARLINK-3730","MEAN_ELEMENT_THEORY":"SGP4","DECAY_DATE":null,"MEAN_MOTION_DOT":"0.00003033","BSTAR":"0.00020859000000","PERIOD":"95.437","ELEMENT_SET_NO":"999","REF_FRAME":"TEME","CENTER_NAME":"EARTH","MEAN_ANOMALY":"316.7961","MEAN_MOTION":"15.08844306","COUNTRY_CODE":"US","SITE":"AFETR","EPOCH":"2022-09-27T21:08:37.868640","GP_ID":"213667099","NORAD_CAT_ID":"52139","RA_OF_ASC_NODE":"330.1293","ECCENTRICITY":"0.00021320","MEAN_MOTION_DDOT":"0.0000000000000","PERIAPSIS":"538.257","TLE_LINE2":"2 52139  53.2189 330.1293 0002132  43.3198 316.7961 15.08844306 30754","TLE_LINE1":"1 52139U 22029BD  22270.88099385  .00003033  00000-0  20859-3 0  9994"},{"BSTAR":"-0.00007847100000","MEAN_MOTION_DOT":"-0.00001537","PERIOD":"95.437","REF_FRAME":"TEME","CENTER_NAME":"EARTH","MEAN_ANOMALY":"303.7697","ELEMENT_SET_NO":"999","MEAN_MOTION":"15.08846415","COUNTRY_CODE":"US","SITE":"AFETR","GP_ID":"213668350","EPOCH":"2022-09-27T14:58:59.879424","NORAD_CAT_ID":"52140","MEAN_MOTION_DDOT":"0.0000000000000","PERIAPSIS":"538.627","ECCENTRICITY":"0.00015890","RA_OF_ASC_NODE":"321.2795","TLE_LINE1":"1 52140U 22029BE  22270.62430416 -.00001537  00000-0 -78471-4 0  9995","TLE_LINE2":"2 52140  53.2193 321.2795 0001589  56.3446 303.7697 15.08846415 30861","RCS_SIZE":"LARGE","INCLINATION":"53.2193","SEMIMAJOR_AXIS":"6917.861","APOAPSIS":"540.825","REV_AT_EPOCH":"3086","FILE":"3585280","LAUNCH_DATE":"2022-03-19","CLASSIFICATION_TYPE":"U","EPHEMERIS_TYPE":"0","OBJECT_ID":"2022-029BE","OBJECT_NAME":"STARLINK-3682","OBJECT_TYPE":"PAYLOAD","TIME_SYSTEM":"UTC","ARG_OF_PERICENTER":"56.3446","DECAY_DATE":null,"MEAN_ELEMENT_THEORY":"SGP4"},{"MEAN_MOTION":"15.08841666","COUNTRY_CODE":"US","PERIOD":"95.437","BSTAR":"0.00010152000000","MEAN_MOTION_DOT":"0.00001328","MEAN_ANOMALY":"307.3914","CENTER_NAME":"EARTH","REF_FRAME":"TEME","ELEMENT_SET_NO":"999","MEAN_MOTION_DDOT":"0.0000000000000","PERIAPSIS":"538.629","ECCENTRICITY":"0.00016060","RA_OF_ASC_NODE":"0.7010","TLE_LINE1":"1 52261U 22041A   22270.75312004  .00001328  00000-0  10152-3 0  9996","TLE_LINE2":"2 52261  53.2194   0.7010 0001606  52.7224 307.3914 15.08841666 25521","GP_ID":"213642154","EPOCH":"2022-09-27T18:04:29.571456","SITE":"AFETR","NORAD_CAT_ID":"52261","LAUNCH_DATE":"2022-04-21","CLASSIFICATION_TYPE":"U","INCLINATION":"53.2194","RCS_SIZE":"LARGE","REV_AT_EPOCH":"2552","APOAPSIS":"540.851","SEMIMAJOR_AXIS":"6917.875","FILE":"3585174","DECAY_DATE":null,"MEAN_ELEMENT_THEORY":"SGP4","EPHEMERIS_TYPE":"0","OBJECT_ID":"2022-041A","OBJECT_NAME":"STARLINK-3810","ARG_OF_PERICENTER":"52.7224","OBJECT_TYPE":"PAYLOAD","TIME_SYSTEM":"UTC"},{"MEAN_ANOMALY":"310.7844","CENTER_NAME":"EARTH","REF_FRAME":"TEME","ELEMENT_SET_NO":"999","PERIOD":"95.436","BSTAR":"0.00062510000000","MEAN_MOTION_DOT":"0.00009679","COUNTRY_CODE":"US","MEAN_MOTION":"15.08857759","NORAD_CAT_ID":"52262","GP_ID":"213667110","EPOCH":"2022-09-27T18:11:09.413376","SITE":"AFETR","TLE_LINE1":"1 52262U 22041B   22270.75774784  .00009679  00000-0  62510-3 0  9996","TLE_LINE2":"2 52262  53.2178   0.6770 0001823  49.3306 310.7844 15.08857759 24305","MEAN_MOTION_DDOT":"0.0000000000000","PERIAPSIS":"538.430","RA_OF_ASC_NODE":"0.6770","ECCENTRICITY":"0.00018230","FILE":"3585280","RCS_SIZE":"LARGE","INCLINATION":"53.2178","REV_AT_EPOCH":"2430","APOAPSIS":"540.952","SEMIMAJOR_AXIS":"6917.826","CLASSIFICATION_TYPE":"U","LAUNCH_DATE":"2022-04-21","OBJECT_NAME":"STARLINK-3761","ARG_OF_PERICENTER":"49.3306","OBJECT_TYPE":"PAYLOAD","TIME_SYSTEM":"UTC","EPHEMERIS_TYPE":"0","OBJECT_ID":"2022-041B","DECAY_DATE":null,"MEAN_ELEMENT_THEORY":"SGP4"}];
